{
    "links": {
        "self": "http://www.neowsapp.com/rest/v1/neo/3789547?api_key=iIulBulltgU6a56xZRHN4H3l9WmuAYTsLGpBGhQ2"
    },
    "id": "3789547",
    "neo_reference_id": "3789547",
    "name": "(2017 WO2)",
    "designation": "2017 WO2",
    "nasa_jpl_url": "http://ssd.jpl.nasa.gov/sbdb.cgi?sstr=3789547",
    "absolute_magnitude_h": 26.6,
    "estimated_diameter": {
        "kilometers": {
            "estimated_diameter_min": 0.0127219879,
            "estimated_diameter_max": 0.0284472297
        },
        "meters": {
            "estimated_diameter_min": 12.7219878539,
            "estimated_diameter_max": 28.4472296503
        },
        "miles": {
            "estimated_diameter_min": 0.0079050743,
            "estimated_diameter_max": 0.0176762835
        },
        "feet": {
            "estimated_diameter_min": 41.7388066307,
            "estimated_diameter_max": 93.330808926
        }
    },
    "is_potentially_hazardous_asteroid": false,
    "close_approach_data": [
        {
            "close_approach_date": "1960-12-04",
            "close_approach_date_full": "1960-Dec-04 06:34",
            "epoch_date_close_approach": -286392360000,
            "relative_velocity": {
                "kilometers_per_second": "23.6543023778",
                "kilometers_per_hour": "85155.4885600148",
                "miles_per_hour": "52912.3089888603"
            },
            "miss_distance": {
                "astronomical": "0.4160194796",
                "lunar": "161.8315775644",
                "kilometers": "62235628.026668452",
                "miles": "38671426.0379185576"
            },
            "orbiting_body": "Earth"
        },
        {
            "close_approach_date": "2017-11-11",
            "close_approach_date_full": "2017-Nov-11 10:00",
            "epoch_date_close_approach": 1510394400000,
            "relative_velocity": {
                "kilometers_per_second": "11.2794616639",
                "kilometers_per_hour": "40606.0619902031",
                "miles_per_hour": "25231.0277960792"
            },
            "miss_distance": {
                "astronomical": "0.0066475009",
                "lunar": "2.5858778501",
                "kilometers": "994451.975463083",
                "miles": "617923.8040452254"
            },
            "orbiting_body": "Earth"
        },
        {
            "close_approach_date": "2017-11-11",
            "close_approach_date_full": "2017-Nov-11 10:47",
            "epoch_date_close_approach": 1510397220000,
            "relative_velocity": {
                "kilometers_per_second": "12.2998720792",
                "kilometers_per_hour": "44279.5394851333",
                "miles_per_hour": "27513.5838539708"
            },
            "miss_distance": {
                "astronomical": "0.0084701649",
                "lunar": "3.2948941461",
                "kilometers": "1267118.627588763",
                "miles": "787351.0052324094"
            },
            "orbiting_body": "Moon"
        }
    ],
    "orbital_data": {
        "orbit_id": "1",
        "orbit_determination_date": "2017-11-21 07:42:06",
        "first_observation_date": "2017-11-19",
        "last_observation_date": "2017-11-21",
        "data_arc_in_days": 2,
        "observations_used": 19,
        "orbit_uncertainty": "8",
        "minimum_orbit_intersection": ".00509246",
        "jupiter_tisserand_invariant": "4.553",
        "epoch_osculation": "2458077.5",
        "eccentricity": ".4267367974047445",
        "semi_major_axis": "1.445600742019696",
        "inclination": ".5359240810054836",
        "ascending_node_longitude": "15.50053120112423",
        "orbital_period": "634.8497758417494",
        "perihelion_distance": ".8287097110442887",
        "perihelion_argument": "330.143673029374",
        "aphelion_distance": "2.062491772995103",
        "perihelion_time": "2458023.083821246258",
        "mean_anomaly": "30.85741713521582",
        "mean_motion": ".5670632859918313",
        "equinox": "J2000",
        "orbit_class": {
            "orbit_class_type": "APO",
            "orbit_class_description": "Near-Earth asteroid orbits which cross the Earth’s orbit similar to that of 1862 Apollo",
            "orbit_class_range": "a (semi-major axis) > 1.0 AU; q (perihelion) < 1.017 AU"
        }
    },
    "is_sentry_object": false
}